{
  "type": "FeatureCollection",
  "features": [
    {
      "type": "Feature",
      "properties": {
        "norad_id": 31888,
        "name": "FENGYUN 1C DEB",
        "group": "fengyun-1c-debris",
        "lat": -18.206372153910404,
        "lon": 92.43646135706646,
        "alt_km": 771.1935895263014,
        "timestamp": "2025-12-14T22:38:41.042561+00:00",
        "meta_object_name": "FENGYUN 1C DEB",
        "meta_object_id": "1999-025CKP",
        "meta_epoch": "2025-12-14T01:37:35.065344",
        "meta_mean_motion": 14.33953322,
        "meta_eccentricity": 0.0017525,
        "meta_inclination": 99.155,
        "meta_ra_of_asc_node": 274.5505,
        "meta_arg_of_pericenter": 212.8144,
        "meta_mean_anomaly": 147.1952,
        "meta_ephemeris_type": 0,
        "meta_classification_type": "U",
        "meta_norad_cat_id": 31888,
        "meta_element_set_no": 999,
        "meta_rev_at_epoch": 95656,
        "meta_bstar": 0.0022264011,
        "meta_mean_motion_dot": 6.177e-05,
        "meta_mean_motion_ddot": 0,
        "tle_line1": "1 31888U 99025CKP 25348.06776696  .00006177  00000+0  22264-2 0  9990",
        "tle_line2": "2 31888  99.1550 274.5505 0017525 212.8144 147.1952 14.33953322956564"
      },
      "geometry": {
        "type": "Point",
        "coordinates": [
          92.43646135706646,
          -18.206372153910404
        ]
      }
    },
    {
      "type": "Feature",
      "properties": {
        "norad_id": 31890,
        "name": "FENGYUN 1C DEB",
        "group": "fengyun-1c-debris",
        "lat": 50.46877597269254,
        "lon": -10.320000450690866,
        "alt_km": 905.9428677133546,
        "timestamp": "2025-12-14T22:38:41.042571+00:00",
        "meta_object_name": "FENGYUN 1C DEB",
        "meta_object_id": "1999-025CKR",
        "meta_epoch": "2025-12-13T07:13:55.916832",
        "meta_mean_motion": 14.10133411,
        "meta_eccentricity": 0.00716633,
        "meta_inclination": 98.7189,
        "meta_ra_of_asc_node": 358.8048,
        "meta_arg_of_pericenter": 240.5449,
        "meta_mean_anomaly": 118.8559,
        "meta_ephemeris_type": 0,
        "meta_classification_type": "U",
        "meta_norad_cat_id": 31890,
        "meta_element_set_no": 999,
        "meta_rev_at_epoch": 64160,
        "meta_bstar": 0.0001662561,
        "meta_mean_motion_dot": 2.58e-06,
        "meta_mean_motion_ddot": 0,
        "tle_line1": "1 31890U 99025CKR 25347.30134163  .00000258  00000+0  16626-3 0  9996",
        "tle_line2": "2 31890  98.7189 358.8048 0071663 240.5449 118.8559 14.10133411641605"
      },
      "geometry": {
        "type": "Point",
        "coordinates": [
          -10.320000450690866,
          50.46877597269254
        ]
      }
    },
    {
      "type": "Feature",
      "properties": {
        "norad_id": 31891,
        "name": "FENGYUN 1C DEB",
        "group": "fengyun-1c-debris",
        "lat": -26.7467972510092,
        "lon": 8.756169139832117,
        "alt_km": 1169.25803268063,
        "timestamp": "2025-12-14T22:38:41.042580+00:00",
        "meta_object_name": "FENGYUN 1C DEB",
        "meta_object_id": "1999-025CKS",
        "meta_epoch": "2025-12-13T06:21:25.682112",
        "meta_mean_motion": 13.66204528,
        "meta_eccentricity": 0.02249336,
        "meta_inclination": 99.4026,
        "meta_ra_of_asc_node": 2.3357,
        "meta_arg_of_pericenter": 181.9522,
        "meta_mean_anomaly": 178.0766,
        "meta_ephemeris_type": 0,
        "meta_classification_type": "U",
        "meta_norad_cat_id": 31891,
        "meta_element_set_no": 999,
        "meta_rev_at_epoch": 92417,
        "meta_bstar": 0.00072928378,
        "meta_mean_motion_dot": 6.73e-06,
        "meta_mean_motion_ddot": 0,
        "tle_line1": "1 31891U 99025CKS 25347.26488058  .00000673  00000+0  72928-3 0  9995",
        "tle_line2": "2 31891  99.4026   2.3357 0224933 181.9522 178.0766 13.66204528924170"
      },
      "geometry": {
        "type": "Point",
        "coordinates": [
          8.756169139832117,
          -26.7467972510092
        ]
      }
    },
    {
      "type": "Feature",
      "properties": {
        "norad_id": 31892,
        "name": "FENGYUN 1C DEB",
        "group": "fengyun-1c-debris",
        "lat": 32.097660774458596,
        "lon": -15.211111477002605,
        "alt_km": 847.5659340307802,
        "timestamp": "2025-12-14T22:38:41.042590+00:00",
        "meta_object_name": "FENGYUN 1C DEB",
        "meta_object_id": "1999-025CKT",
        "meta_epoch": "2025-12-06T17:19:53.766912",
        "meta_mean_motion": 14.41156255,
        "meta_eccentricity": 0.01986119,
        "meta_inclination": 99.2881,
        "meta_ra_of_asc_node": 149.9643,
        "meta_arg_of_pericenter": 304.4066,
        "meta_mean_anomaly": 53.8482,
        "meta_ephemeris_type": 0,
        "meta_classification_type": "U",
        "meta_norad_cat_id": 31892,
        "meta_element_set_no": 999,
        "meta_rev_at_epoch": 64819,
        "meta_bstar": 0.001005312,
        "meta_mean_motion_dot": 4.04e-05,
        "meta_mean_motion_ddot": 0,
        "tle_line1": "1 31892U 99025CKT 25340.72215008  .00004040  00000+0  10053-2 0  9995",
        "tle_line2": "2 31892  99.2881 149.9643 0198611 304.4066  53.8482 14.41156255648199"
      },
      "geometry": {
        "type": "Point",
        "coordinates": [
          -15.211111477002605,
          32.097660774458596
        ]
      }
    },
    {
      "type": "Feature",
      "properties": {
        "norad_id": 31893,
        "name": "FENGYUN 1C DEB",
        "group": "fengyun-1c-debris",
        "lat": -22.095921454026627,
        "lon": -48.84015820025804,
        "alt_km": 568.500512567598,
        "timestamp": "2025-12-14T22:38:41.042602+00:00",
        "meta_object_name": "FENGYUN 1C DEB",
        "meta_object_id": "1999-025CKU",
        "meta_epoch": "2025-12-12T15:47:49.240320",
        "meta_mean_motion": 14.6375851,
        "meta_eccentricity": 0.01749458,
        "meta_inclination": 99.0698,
        "meta_ra_of_asc_node": 304.9273,
        "meta_arg_of_pericenter": 327.0001,
        "meta_mean_anomaly": 214.4613,
        "meta_ephemeris_type": 0,
        "meta_classification_type": "U",
        "meta_norad_cat_id": 31893,
        "meta_element_set_no": 999,
        "meta_rev_at_epoch": 98403,
        "meta_bstar": 0.0006699444,
        "meta_mean_motion_dot": 4.296e-05,
        "meta_mean_motion_ddot": 0,
        "tle_line1": "1 31893U 99025CKU 25346.65820880  .00004296  00000+0  66994-3 0  9993",
        "tle_line2": "2 31893  99.0698 304.9273 0174945 327.0001 214.4613 14.63758510984033"
      },
      "geometry": {
        "type": "Point",
        "coordinates": [
          -48.84015820025804,
          -22.095921454026627
        ]
      }
    },
    {
      "type": "Feature",
      "properties": {
        "norad_id": 31895,
        "name": "FENGYUN 1C DEB",
        "group": "fengyun-1c-debris",
        "lat": -49.79495267395347,
        "lon": -173.18321276981663,
        "alt_km": 820.5638923554043,
        "timestamp": "2025-12-14T22:38:41.042633+00:00",
        "meta_object_name": "FENGYUN 1C DEB",
        "meta_object_id": "1999-025CKW",
        "meta_epoch": "2025-12-12T20:38:21.434784",
        "meta_mean_motion": 13.75531476,
        "meta_eccentricity": 0.02270891,
        "meta_inclination": 99.0992,
        "meta_ra_of_asc_node": 15.7563,
        "meta_arg_of_pericenter": 229.2831,
        "meta_mean_anomaly": 128.84,
        "meta_ephemeris_type": 0,
        "meta_classification_type": "U",
        "meta_norad_cat_id": 31895,
        "meta_element_set_no": 999,
        "meta_rev_at_epoch": 61898,
        "meta_bstar": 0.0035421505,
        "meta_mean_motion_dot": 4.076e-05,
        "meta_mean_motion_ddot": 0,
        "tle_line1": "1 31895U 99025CKW 25346.85997031  .00004076  00000+0  35422-2 0  9997",
        "tle_line2": "2 31895  99.0992  15.7563 0227089 229.2831 128.8400 13.75531476618985"
      },
      "geometry": {
        "type": "Point",
        "coordinates": [
          -173.18321276981663,
          -49.79495267395347
        ]
      }
    },
    {
      "type": "Feature",
      "properties": {
        "norad_id": 31898,
        "name": "FENGYUN 1C DEB",
        "group": "fengyun-1c-debris",
        "lat": 81.17958941545078,
        "lon": 132.90638385556704,
        "alt_km": 714.240699809011,
        "timestamp": "2025-12-14T22:38:41.042644+00:00",
        "meta_object_name": "FENGYUN 1C DEB",
        "meta_object_id": "1999-025CKZ",
        "meta_epoch": "2025-12-09T09:45:56.221344",
        "meta_mean_motion": 14.68362334,
        "meta_eccentricity": 0.01439261,
        "meta_inclination": 98.7065,
        "meta_ra_of_asc_node": 207.9611,
        "meta_arg_of_pericenter": 229.9634,
        "meta_mean_anomaly": 128.887,
        "meta_ephemeris_type": 0,
        "meta_classification_type": "U",
        "meta_norad_cat_id": 31898,
        "meta_element_set_no": 999,
        "meta_rev_at_epoch": 65663,
        "meta_bstar": 0.0015942515,
        "meta_mean_motion_dot": 0.00010733,
        "meta_mean_motion_ddot": 0,
        "tle_line1": "1 31898U 99025CKZ 25343.40690071  .00010733  00000+0  15943-2 0  9995",
        "tle_line2": "2 31898  98.7065 207.9611 0143926 229.9634 128.8870 14.68362334656632"
      },
      "geometry": {
        "type": "Point",
        "coordinates": [
          132.90638385556704,
          81.17958941545078
        ]
      }
    }
  ]
}